[{"OBJECT_NAME":"JILIN-1 10","OBJECT_ID":"2019-005E","EPOCH":"2026-03-09T22:11:06.915840","MEAN_MOTION":15.2445874,"ECCENTRICITY":0.00069203,"INCLINATION":97.4731,"RA_OF_ASC_NODE":167.8564,"ARG_OF_PERICENTER":265.2171,"MEAN_ANOMALY":94.8276,"EPHEMERIS_TYPE":0,"CLASSIFICATION_TYPE":"U","NORAD_CAT_ID":43946,"ELEMENT_SET_NO":999,"REV_AT_EPOCH":39418,"BSTAR":0.00035023991,"MEAN_MOTION_DOT":8.535e-5,"MEAN_MOTION_DDOT":0},{"OBJECT_NAME":"STARLINK-2330","OBJECT_ID":"2021-021Q","EPOCH":"2026-03-10T00:00:02.999808","MEAN_MOTION":15.18160337,"ECCENTRICITY":0.00015757,"INCLINATION":53.1049,"RA_OF_ASC_NODE":214.8621,"ARG_OF_PERICENTER":60.7022,"MEAN_ANOMALY":1.7826,"EPHEMERIS_TYPE":0,"CLASSIFICATION_TYPE":"U","NORAD_CAT_ID":47874,"ELEMENT_SET_NO":999,"REV_AT_EPOCH":579,"BSTAR":0.042995602,"MEAN_MOTION_DOT":0.0096506,"MEAN_MOTION_DDOT":0}]
